#aV2024 10  9  0  0  0.00000000     288 DD+AD WGS84 FIT  NGA
## 2335 259200.00000000   300.00000000 60592 0.0000000000000
+   31     2  3  4  5  6  7  8  9 10 11 12 13 14 15 16 17 18
+         19 20 21 22 23 24 25 26 27 28 29 30 31 32  0  0  0
+          0  0  0  0  0  0  0  0  0  0  0  0  0  0  0  0  0
+          0  0  0  0  0  0  0  0  0  0  0  0  0  0  0  0  0
+          0  0  0  0  0  0  0  0  0  0  0  0  0  0  0  0  0
++         2  2  2  2  2  2  2  2  2  2  2  2  2  2  2  2  2
++         2  2  2  2  2  2  2  2  2  2  2  2  2  2  0  0  0
++         0  0  0  0  0  0  0  0  0  0  0  0  0  0  0  0  0
++         0  0  0  0  0  0  0  0  0  0  0  0  0  0  0  0  0
++         0  0  0  0  0  0  0  0  0  0  0  0  0  0  0  0  0
%c cc cc ccc ccc cccc cccc cccc cccc ccccc ccccc ccccc ccccc
%c cc cc ccc ccc cccc cccc cccc cccc ccccc ccccc ccccc ccccc
%f  0.0000000  0.000000000  0.00000000000  0.000000000000000
%f  0.0000000  0.000000000  0.00000000000  0.000000000000000
%i    0    0    0    0      0      0      0      0         0
%i    0    0    0    0      0      0      0      0         0
/*      NGA, ST. LOUIS,MO.                                  
/*   EPHEMERIS COMPUTED FROM 2 DAYS OF DATA                 
/*   EPOCHA v9 SMOOTHER                                     
/*   G2296 IERS2010 SATIGS SATAPC                           
*  2024 10  9 14 20  0.00000000
P  2 -14451.116666  21573.374172   5104.171379   -340.777241                    
V  2    112.745548  -6561.419743  31233.203236      0.081942                    
P  3 -13308.852073  12553.836509 -19379.807222    564.840329                    
V  3 -24199.441230  -1481.696167  15898.886877      0.119157                    
P  4  -4780.192462  18520.929124 -18351.159868    458.615798                    
V  4 -12012.791089 -20104.728112 -17291.874729      0.068540                    
P  5  25129.979618  -5369.820023   6668.679167   -189.237322                    
V  5   8751.366398   1999.225884 -30473.326071     -0.012157                    
P  6  11319.428828   9273.477408 -22092.243852    -26.225990                    
V  6 -15000.381517  23811.380834   2405.782107     -0.273074                    
P  7  -3195.923873  23116.014980  12770.235522    -29.279116                    
V  7 -10339.723180  11969.334947 -25759.158474      0.035748                    
P  8 -13133.698065   7994.901551  21539.401345    379.017718                    
V  8 -14522.067594 -23547.372145    317.730296      0.118382                    
P  9   4748.742505  23581.595561 -11281.991780    391.306619                    
V  9  -9365.558690 -10972.950656 -27162.654285      0.164471                    
P 10 -19089.494723 -10631.218003  15552.618524   -152.580453                    
V 10  19189.796186   -824.361842  22986.856505     -0.132012                    
P 11  18624.175851  -5532.260280 -18046.053303   -742.504416                    
V 11 -11429.190894  20010.983968 -17957.932581     -0.031917                    
P 12  17442.441323 -10608.309284 -17245.958717   -543.922946                    
V 12  21159.046728   3453.060130  19641.205608     -0.026887                    
P 13  15931.741870   1506.027318  21011.101169    680.632378                    
V 13   9159.130426  25546.942793  -8450.937756      0.018410                    
P 14  15439.900348  13112.341872  17340.415968    513.761586                    
V 14 -21943.317518   1014.168087  18594.613608      0.084369                    
P 15  11734.640231 -10133.082322  21043.267497    213.740314                    
V 15  17457.255487  21952.963892    973.714622      0.044458                    
P 16 -26619.279004   -820.018718   2690.901475   -159.402919                    
V 16  -3521.533003  -2809.140294 -31229.655369      0.100219                    
P 17  13612.420189  22299.875003  -3772.060658    601.190061                    
V 17   -212.238095   6019.535327  31522.358428     -0.126319                    
P 18   3252.929543 -22536.277316  13507.858736   -657.301720                    
V 18  10807.913669 -13499.200579 -25387.750236     -0.015032                    
P 19  16683.634862  16760.145144 -12659.377926    548.380183                    
V 19   4477.004996  15126.086574  25817.038430      0.047315                    
P 20  26004.804280   -834.527464  -4850.094624    369.841526                    
V 20  -5698.631474   4028.486673 -30934.258144     -0.003683                    
P 21 -16501.374972  17381.255078  10576.495451    100.126475                    
V 21   2842.471447 -13292.846488  28361.335596     -0.007962                    
P 22  21289.638372  10607.431548  11901.298717    -69.505042                    
V 22 -14781.819576    952.994254  26797.441920     -0.034099                    
P 23  -5626.894506 -14414.420867  21647.963595    337.952104                    
V 23  27313.969639   -666.874696   6446.428561      0.082245                    
P 24  14632.332761 -20987.941431   5831.957569   -485.262189                    
V 24    117.042602   8999.919886  30208.984242      0.010450                    
P 25   3737.131163 -15461.048307 -21588.899003    499.565820                    
V 25  26680.458168    429.837962   4642.073740     -0.000853                    
P 26 -24543.504921  -5303.558774  -9387.429768     59.929371                    
V 26  11385.968911  -3847.046952 -27706.885014     -0.092377                    
P 27 -17761.312900  -4053.175670  19179.263080    -34.442649                    
V 27 -11278.169783 -22174.105830 -14485.580199     -0.002663                    
P 28 -10695.187106 -11519.930264 -21423.194883   -440.001717                    
V 28  13647.640424 -23495.170998   5827.552284     -0.130689                    
P 29  -1089.938770 -23232.878034 -12752.847594   -572.445384                    
V 29   8734.312753  13763.783917 -26025.425201      0.026406                    
P 30   5630.580242  17806.544605  18936.901751   -305.738670                    
V 30 -13788.159174  19617.873809 -14728.284419      0.074087                    
P 31 -17462.907502    722.468409 -20335.194095   -223.627842                    
V 31  12678.899955 -21818.985657 -11428.875115      0.005213                    
P 32 -16017.777613 -20593.079720  -5318.155626   -588.677901                    
V 32  -1255.419120  -7329.490955  30704.161982      0.042991                    
EOF
